[{"OBJECT_NAME":"STARLINK-34427","OBJECT_ID":"2025-133AC","EPOCH":"2026-03-09T10:42:55.335456","MEAN_MOTION":15.30190262,"ECCENTRICITY":0.00012115,"INCLINATION":53.1593,"RA_OF_ASC_NODE":117.7455,"ARG_OF_PERICENTER":91.1588,"MEAN_ANOMALY":268.9552,"EPHEMERIS_TYPE":0,"CLASSIFICATION_TYPE":"U","NORAD_CAT_ID":64498,"ELEMENT_SET_NO":999,"REV_AT_EPOCH":4115,"BSTAR":0.00048667063,"MEAN_MOTION_DOT":0.00014078,"MEAN_MOTION_DDOT":0},{"OBJECT_NAME":"FENGYUN 1C DEB","OBJECT_ID":"1999-025ETT","EPOCH":"2026-03-07T08:30:03.670560","MEAN_MOTION":15.28888299,"ECCENTRICITY":0.00158464,"INCLINATION":99.1103,"RA_OF_ASC_NODE":112.0072,"ARG_OF_PERICENTER":201.0032,"MEAN_ANOMALY":159.0553,"EPHEMERIS_TYPE":0,"CLASSIFICATION_TYPE":"U","NORAD_CAT_ID":38726,"ELEMENT_SET_NO":999,"REV_AT_EPOCH":71135,"BSTAR":0.013792546,"MEAN_MOTION_DOT":0.00409659,"MEAN_MOTION_DDOT":0}]
